GLOBALSTAR M094 [+]     
1 39074U 13005C   24050.59981123 -.00000090  00000+0  79628-4 0  9996
2 39074  51.9936 214.4970 0000710  91.1862 268.9086 12.62263172511301
GLOBALSTAR M096 [+]     
1 39075U 13005D   24050.29638058 -.00000071  00000+0  18267-3 0  9990
2 39075  52.0053 263.5609 0000576  69.9649 290.1280 12.62272871510188
GLOBALSTAR M078 [+]     
1 39076U 13005E   24050.50782960  .00000015  00000+0  66498-3 0  9993
2 39076  51.9903 348.0851 0000905 161.0601 199.0299 12.62262062508834
GLOBALSTAR M095 [+]     
1 39077U 13005F   24050.53376260 -.00000089  00000+0  84579-4 0  9992
2 39077  51.9829 345.4400 0000249 184.6082 175.4782 12.62263290508691
GLOBALSTAR M087 [+]     
1 52888U 22064A   24050.59805531 -.00000065  00000+0  12105-3 0  9995
2 52888  51.9737 261.8955 0010269  65.3417 294.8552 13.37565751 81653
